[{"OBJECT_NAME":"KUIPER-00018","OBJECT_ID":"2025-088K","EPOCH":"2026-03-09T09:14:13.950816","MEAN_MOTION":14.79966884,"ECCENTRICITY":0.00010275,"INCLINATION":51.9017,"RA_OF_ASC_NODE":101.9157,"ARG_OF_PERICENTER":120.7858,"MEAN_ANOMALY":239.3206,"EPHEMERIS_TYPE":0,"CLASSIFICATION_TYPE":"U","NORAD_CAT_ID":63733,"ELEMENT_SET_NO":999,"REV_AT_EPOCH":4744,"BSTAR":0.001710843,"MEAN_MOTION_DOT":0.00012856,"MEAN_MOTION_DDOT":0},{"OBJECT_NAME":"COSMOS 2251 DEB","OBJECT_ID":"1993-036US","EPOCH":"2026-03-09T17:09:01.417536","MEAN_MOTION":14.80979927,"ECCENTRICITY":0.00057079,"INCLINATION":74.0159,"RA_OF_ASC_NODE":313.4934,"ARG_OF_PERICENTER":343.7864,"MEAN_ANOMALY":77.8087,"EPHEMERIS_TYPE":0,"CLASSIFICATION_TYPE":"U","NORAD_CAT_ID":34556,"ELEMENT_SET_NO":999,"REV_AT_EPOCH":89615,"BSTAR":0.0018885784,"MEAN_MOTION_DOT":0.00014628,"MEAN_MOTION_DDOT":0}]
